NORAD_CAT_ID,OBJECT_NAME,OBJECT_TYPE,EPOCH,MEAN_MOTION,ECCENTRICITY,INCLINATION,RA_OF_ASC_NODE,ARG_OF_PERICENTER,MEAN_ANOMALY,BSTAR,MEAN_MOTION_DOT,MEAN_MOTION_DDOT,TLE_LINE0,TLE_LINE1,TLE_LINE2,SEMIMAJOR_AXIS,PERIOD,APOGEE,PERIGEE,DECAYED
53970.0,STARLINK-4567,PAYLOAD,2023-09-30 04:14:25,15.08848932,0.0001392,53.2169,261.3147,103.5675,256.5472,0.0001218,1.651e-05,0.0,0 STARLINK-4567,1 53970U 22125G   23273.17667921  .00001651  00000-0  12180-3 0  9990,2 53970  53.2169 261.3147 0001392 103.5675 256.5472 15.08848932 54815,6917.853,95.437,540.681,538.755,0.0
53970.0,STARLINK-4567,PAYLOAD,2023-10-01 02:29:49,15.08842791,0.0001382,53.215,257.1549,110.5191,249.595,-4.5723e-05,-1.016e-05,0.0,0 STARLINK-4567,1 53970U 22125G   23274.10404672 -.00001016  00000-0 -45723-4 0  9993,2 53970  53.2150 257.1549 0001382 110.5191 249.5950 15.08842791 55017,6917.872,95.437,540.693,538.781,0.0
53970.0,STARLINK-4567,PAYLOAD,2023-10-01 08:51:22,15.08842903,0.0001458,53.2161,255.9651,106.4142,253.701,-5.1696e-06,-3.7e-06,0.0,0 STARLINK-4567,1 53970U 22125G   23274.36900567 -.00000370  00000-0 -51696-5 0  9994,2 53970  53.2161 255.9651 0001458 106.4142 253.7010 15.08842903 54998,6917.872,95.437,540.745,538.728,0.0
53970.0,STARLINK-4567,PAYLOAD,2023-10-02 02:20:37,15.08832699,0.0001466,53.2159,252.6938,97.4586,262.6572,-9.2534e-05,-1.76e-05,0.0,0 STARLINK-4567,1 53970U 22125G   23275.09765711 -.00001760  00000-0 -92534-4 0  9994,2 53970  53.2159 252.6938 0001466  97.4586 262.6572 15.08832699 55160,6917.903,95.438,540.782,538.754,0.0
53970.0,STARLINK-4567,PAYLOAD,2023-10-02 07:06:46,15.08836602,0.0001463,53.218,251.8063,92.9936,267.1223,-4.4408e-05,-9.95e-06,0.0,0 STARLINK-4567,1 53970U 22125G   23275.29637457 -.00000995  00000-0 -44408-4 0  9997,2 53970  53.2180 251.8063 0001463  92.9936 267.1223 15.08836602 55138,6917.891,95.438,540.768,538.744,0.0
53970.0,STARLINK-4567,PAYLOAD,2023-10-03 05:22:10,15.08841391,0.0001444,53.2175,247.644,100.3604,259.7551,0.00014647,2.044e-05,0.0,0 STARLINK-4567,1 53970U 22125G   23276.22372969  .00002044  00000-0  14647-3 0  9991,2 53970  53.2175 247.6440 0001444 100.3604 259.7551 15.08841391 55333,6917.876,95.437,540.74,538.742,0.0
53970.0,STARLINK-4567,PAYLOAD,2023-10-03 08:32:56,15.0884582,0.0001412,53.2171,247.0467,93.2405,266.8748,0.00017513,2.501e-05,0.0,0 STARLINK-4567,1 53970U 22125G   23276.35620723  .00002501  00000-0  17513-3 0  9992,2 53970  53.2171 247.0467 0001412  93.2405 266.8748 15.08845820 55299,6917.863,95.437,540.704,538.751,0.0
53970.0,STARLINK-4567,PAYLOAD,2023-10-03 14:54:29,15.08839618,0.0001358,53.2165,245.8559,95.3414,264.7733,6.8292e-05,7.99e-06,0.0,0 STARLINK-4567,1 53970U 22125G   23276.62117390  .00000799  00000-0  68292-4 0  9991,2 53970  53.2165 245.8559 0001358  95.3414 264.7733 15.08839618 55392,6917.882,95.438,540.686,538.807,0.0
53970.0,STARLINK-4567,PAYLOAD,2023-10-04 06:48:20,15.08840544,0.000141,53.2167,242.8823,96.0422,264.073,0.00013858,1.918e-05,0.0,0 STARLINK-4567,1 53970U 22125G   23277.28357508  .00001918  00000-0  13858-3 0  9992,2 53970  53.2167 242.8823 0001410  96.0422 264.0730 15.08840544 55436,6917.879,95.438,540.719,538.768,0.0
53970.0,STARLINK-4567,PAYLOAD,2023-10-04 14:45:16,15.08843673,0.0001659,53.2175,241.3955,87.9656,272.1526,0.00013729,1.898e-05,0.0,0 STARLINK-4567,1 53970U 22125G   23277.61477429  .00001898  00000-0  13729-3 0  9998,2 53970  53.2175 241.3955 0001659  87.9656 272.1526 15.08843673 55482,6917.869,95.437,540.882,538.586,0.0
53970.0,STARLINK-4567,PAYLOAD,2023-10-05 01:52:58,15.08839555,0.0002118,53.216,239.3127,84.6576,275.4658,7.4127e-06,-1.7e-06,0.0,0 STARLINK-4567,1 53970U 22125G   23278.07845721 -.00000170  00000-0  74127-5 0  9997,2 53970  53.2160 239.3127 0002118  84.6576 275.4658 15.08839555 55611,6917.882,95.438,541.212,538.282,0.0
53970.0,STARLINK-4567,PAYLOAD,2023-10-05 08:14:30,15.0885049,0.0001382,53.2157,238.1243,108.0288,252.0855,0.00014706,2.054e-05,0.0,0 STARLINK-4567,1 53970U 22125G   23278.34340830  .00002054  00000-0  14706-3 0  9995,2 53970  53.2157 238.1243 0001382 108.0288 252.0855 15.08850490 55651,6917.848,95.437,540.669,538.757,0.0
53970.0,STARLINK-4567,PAYLOAD,2023-10-05 14:36:03,15.08836384,0.0001635,53.2164,236.9347,86.4668,273.6511,-2.3122e-05,-6.56e-06,0.0,0 STARLINK-4567,1 53970U 22125G   23278.60837646 -.00000656  00000-0 -23122-4 0  9991,2 53970  53.2164 236.9347 0001635  86.4668 273.6511 15.08836384 55690,6917.891,95.438,540.888,538.625,0.0
53970.0,STARLINK-4567,PAYLOAD,2023-10-06 06:29:54,15.08855402,0.0001819,53.2174,233.9621,88.1039,272.0162,0.00019839,2.872e-05,0.0,0 STARLINK-4567,1 53970U 22125G   23279.27076529  .00002872  00000-0  19839-3 0  9999,2 53970  53.2174 233.9621 0001819  88.1039 272.0162 15.08855402 55796,6917.833,95.437,540.957,538.44,0.0
53970.0,STARLINK-4567,PAYLOAD,2023-10-06 14:26:51,15.08838923,0.0001885,53.2174,232.4744,83.4096,276.711,4.3113e-05,3.98e-06,0.0,0 STARLINK-4567,1 53970U 22125G   23279.60197987  .00000398  00000-0  43113-4 0  9992,2 53970  53.2174 232.4744 0001885  83.4096 276.7110 15.08838923 55849,6917.884,95.438,541.053,538.445,0.0
53970.0,STARLINK-4567,PAYLOAD,2023-10-07 06:20:42,15.08844081,0.0001477,53.217,229.4981,98.6854,261.4305,3.6413e-05,2.92e-06,0.0,0 STARLINK-4567,1 53970U 22125G   23280.26437691  .00000292  00000-0  36413-4 0  9993,2 53970  53.2170 229.4981 0001477  98.6854 261.4305 15.08844081 55884,6917.868,95.437,540.755,538.711,0.0
53970.0,STARLINK-4567,PAYLOAD,2023-10-07 14:17:37,15.088478,0.0001483,53.2168,228.0125,95.3743,264.7418,4.6183e-05,4.47e-06,0.0,0 STARLINK-4567,1 53970U 22125G   23280.59557402  .00000447  00000-0  46183-4 0  9999,2 53970  53.2168 228.0125 0001483  95.3743 264.7418 15.08847800 55999,6917.857,95.437,540.747,538.696,0.0
53970.0,STARLINK-4567,PAYLOAD,2023-10-08 03:00:42,15.08852232,0.0001558,53.2165,225.6328,99.4378,260.679,0.00011862,1.601e-05,0.0,0 STARLINK-4567,1 53970U 22125G   23281.12549271  .00001601  00000-0  11862-3 0  9992,2 53970  53.2165 225.6328 0001558  99.4378 260.6790 15.08852232 56013,6917.843,95.437,540.786,538.63,0.0
53970.0,STARLINK-4567,PAYLOAD,2023-10-08 20:29:57,15.08843572,0.0001341,53.2165,222.3638,89.173,270.9416,0.00021437,3.126e-05,0.0,0 STARLINK-4567,1 53970U 22125G   23281.85413595  .00003126  00000-0  21437-3 0  9994,2 53970  53.2165 222.3638 0001341  89.1730 270.9416 15.08843572 56127,6917.869,95.437,540.662,538.807,0.0
53970.0,STARLINK-4567,PAYLOAD,2023-10-09 02:51:29,15.08857051,0.0001268,53.2157,221.174,95.2085,264.9052,0.00027675,4.121e-05,0.0,0 STARLINK-4567,1 53970U 22125G   23282.11908884  .00004121  00000-0  27675-3 0  9990,2 53970  53.2157 221.1740 0001268  95.2085 264.9052 15.08857051 56225,6917.828,95.436,540.57,538.816,0.0
53970.0,STARLINK-4567,PAYLOAD,2023-10-09 06:02:15,15.08861177,0.0001281,53.2169,220.5804,95.2727,264.8411,0.00031716,4.766e-05,0.0,0 STARLINK-4567,1 53970U 22125G   23282.25156438  .00004766  00000-0  31716-3 0  9991,2 53970  53.2169 220.5804 0001281  95.2727 264.8411 15.08861177 56187,6917.816,95.436,540.567,538.794,0.0
53970.0,STARLINK-4567,PAYLOAD,2023-10-09 20:20:44,15.08835321,0.0001404,53.2168,217.9022,103.6187,256.4962,-7.3968e-05,-1.465e-05,0.0,0 STARLINK-4567,1 53970U 22125G   23282.84773898 -.00001465  00000-0 -73968-4 0  9992,2 53970  53.2168 217.9022 0001404 103.6187 256.4962 15.08835321 56279,6917.895,95.438,540.731,538.788,0.0
53970.0,STARLINK-4567,PAYLOAD,2023-10-10 02:42:17,15.0883894,0.0001431,53.2169,216.7146,99.2837,260.8317,-7.8145e-05,-1.531e-05,0.0,0 STARLINK-4567,1 53970U 22125G   23283.11269718 -.00001531  00000-0 -78145-4 0  9990,2 53970  53.2169 216.7146 0001431  99.2837 260.8317 15.08838940 56370,6917.884,95.438,540.739,538.759,0.0
53970.0,STARLINK-4567,PAYLOAD,2023-10-10 12:14:36,15.08832755,0.0001282,53.2171,214.9309,97.3193,262.7944,-7.1243e-05,-1.421e-05,0.0,0 STARLINK-4567,1 53970U 22125G   23283.51014021 -.00001421  00000-0 -71243-4 0  9999,2 53970  53.2171 214.9309 0001282  97.3193 262.7944 15.08832755 56377,6917.903,95.438,540.654,538.881,0.0
53970.0,STARLINK-4567,PAYLOAD,2023-10-11 05:43:50,15.0883938,0.0001175,53.2167,211.6594,96.8888,263.2238,0.00015915,2.246e-05,0.0,0 STARLINK-4567,1 53970U 22125G   23284.23878238  .00002246  00000-0  15915-3 0  9994,2 53970  53.2167 211.6594 0001175  96.8888 263.2238 15.08839380 56540,6917.882,95.438,540.56,538.934,0.0
53970.0,STARLINK-4567,PAYLOAD,2023-10-11 12:05:23,15.08844517,0.0001198,53.2175,210.4701,93.1128,267.0002,0.00026177,3.881e-05,0.0,0 STARLINK-4567,1 53970U 22125G   23284.50374136  .00003881  00000-0  26177-3 0  9990,2 53970  53.2175 210.4701 0001198  93.1128 267.0002 15.08844517 56525,6917.867,95.437,540.56,538.903,0.0
53970.0,STARLINK-4567,PAYLOAD,2023-10-12 11:56:10,15.08845406,0.0001359,53.2168,206.0094,91.2493,268.8655,0.00036452,5.519e-05,0.0,0 STARLINK-4567,1 53970U 22125G   23285.49734708  .00005519  00000-0  36452-3 0  9991,2 53970  53.2168 206.0094 0001359  91.2493 268.8655 15.08845406 56673,6917.864,95.437,540.669,538.789,0.0
53970.0,STARLINK-4567,PAYLOAD,2023-10-13 11:46:57,15.0884377,0.0001546,53.2173,201.5497,79.5225,280.5941,0.00021367,3.115e-05,0.0,0 STARLINK-4567,1 53970U 22125G   23286.49094749  .00003115  00000-0  21367-3 0  9995,2 53970  53.2173 201.5497 0001546  79.5225 280.5941 15.08843770 56880,6917.869,95.437,540.803,538.664,0.0
53970.0,STARLINK-4567,PAYLOAD,2023-10-14 02:05:25,15.08864206,0.0001428,53.2174,198.8734,79.5224,280.5929,0.00058206,8.994e-05,0.0,0 STARLINK-4567,1 53970U 22125G   23287.08709943  .00008994  00000-0  58206-3 0  9992,2 53970  53.2174 198.8734 0001428  79.5224 280.5929 15.08864206 56974,6917.806,95.436,540.659,538.684,0.0
53970.0,STARLINK-4567,PAYLOAD,2023-10-14 11:37:44,15.08844219,0.0001569,53.2181,197.0897,85.8515,274.2656,8.6998e-05,1.097e-05,0.0,0 STARLINK-4567,1 53970U 22125G   23287.48454488  .00001097  00000-0  86998-4 0  9994,2 53970  53.2181 197.0897 0001569  85.8515 274.2656 15.08844219 56971,6917.867,95.437,540.818,538.647,0.0
